{
    "links": {
        "self": "http://www.neowsapp.com/rest/v1/neo/3829438?api_key=iIulBulltgU6a56xZRHN4H3l9WmuAYTsLGpBGhQ2"
    },
    "id": "3829438",
    "neo_reference_id": "3829438",
    "name": "(2018 RE6)",
    "designation": "2018 RE6",
    "nasa_jpl_url": "http://ssd.jpl.nasa.gov/sbdb.cgi?sstr=3829438",
    "absolute_magnitude_h": 25.3,
    "estimated_diameter": {
        "kilometers": {
            "estimated_diameter_min": 0.0231502122,
            "estimated_diameter_max": 0.0517654482
        },
        "meters": {
            "estimated_diameter_min": 23.150212221,
            "estimated_diameter_max": 51.7654482198
        },
        "miles": {
            "estimated_diameter_min": 0.0143848705,
            "estimated_diameter_max": 0.0321655483
        },
        "feet": {
            "estimated_diameter_min": 75.9521422633,
            "estimated_diameter_max": 169.8341531374
        }
    },
    "is_potentially_hazardous_asteroid": false,
    "close_approach_data": [
        {
            "close_approach_date": "2018-09-19",
            "close_approach_date_full": "2018-Sep-19 05:01",
            "epoch_date_close_approach": 1537333260000,
            "relative_velocity": {
                "kilometers_per_second": "14.0873382738",
                "kilometers_per_hour": "50714.41778586",
                "miles_per_hour": "31511.9669847751"
            },
            "miss_distance": {
                "astronomical": "0.0637257831",
                "lunar": "24.7893296259",
                "kilometers": "9533241.415841997",
                "miles": "5923681.5310416786"
            },
            "orbiting_body": "Earth"
        },
        {
            "close_approach_date": "2019-02-20",
            "close_approach_date_full": "2019-Feb-20 19:25",
            "epoch_date_close_approach": 1550690700000,
            "relative_velocity": {
                "kilometers_per_second": "11.395673406",
                "kilometers_per_hour": "41024.4242614826",
                "miles_per_hour": "25490.9818418085"
            },
            "miss_distance": {
                "astronomical": "0.4056579361",
                "lunar": "157.8009371429",
                "kilometers": "60685563.189156107",
                "miles": "37708260.4104719966"
            },
            "orbiting_body": "Earth"
        }
    ],
    "orbital_data": {
        "orbit_id": "3",
        "orbit_determination_date": "2018-09-17 07:13:20",
        "first_observation_date": "2018-09-12",
        "last_observation_date": "2018-09-17",
        "data_arc_in_days": 5,
        "observations_used": 26,
        "orbit_uncertainty": "8",
        "minimum_orbit_intersection": ".0576377",
        "jupiter_tisserand_invariant": "4.574",
        "epoch_osculation": "2458375.5",
        "eccentricity": ".3559825602140697",
        "semi_major_axis": "1.42110631810899",
        "inclination": "20.89872670339075",
        "ascending_node_longitude": "352.2924925170132",
        "orbital_period": "618.7828697758986",
        "perihelion_distance": ".9152172526521619",
        "perihelion_argument": "64.75895511710335",
        "aphelion_distance": "1.926995383565819",
        "perihelion_time": "2458430.376626335512",
        "mean_anomaly": "328.0734770696883",
        "mean_motion": ".5817872756082911",
        "equinox": "J2000",
        "orbit_class": {
            "orbit_class_type": "APO",
            "orbit_class_description": "Near-Earth asteroid orbits which cross the Earth’s orbit similar to that of 1862 Apollo",
            "orbit_class_range": "a (semi-major axis) > 1.0 AU; q (perihelion) < 1.017 AU"
        }
    },
    "is_sentry_object": false
}